[{"OBJECT_NAME":"FLOCK 4G-17","OBJECT_ID":"2025-009CA","EPOCH":"2026-03-09T22:51:51.984864","MEAN_MOTION":15.27385439,"ECCENTRICITY":0.00036407,"INCLINATION":97.3966,"RA_OF_ASC_NODE":151.0229,"ARG_OF_PERICENTER":339.6132,"MEAN_ANOMALY":20.4962,"EPHEMERIS_TYPE":0,"CLASSIFICATION_TYPE":"U","NORAD_CAT_ID":62681,"ELEMENT_SET_NO":999,"REV_AT_EPOCH":12139,"BSTAR":0.00053710713,"MEAN_MOTION_DOT":0.00014342,"MEAN_MOTION_DDOT":0},{"OBJECT_NAME":"STARLINK-33875","OBJECT_ID":"2025-091Q","EPOCH":"2026-03-09T22:44:58.217856","MEAN_MOTION":15.27624461,"ECCENTRICITY":0.00011279,"INCLINATION":43.0018,"RA_OF_ASC_NODE":50.8927,"ARG_OF_PERICENTER":214.8728,"MEAN_ANOMALY":145.205,"EPHEMERIS_TYPE":0,"CLASSIFICATION_TYPE":"U","NORAD_CAT_ID":63789,"ELEMENT_SET_NO":999,"REV_AT_EPOCH":4894,"BSTAR":0.001093754,"MEAN_MOTION_DOT":0.00029999,"MEAN_MOTION_DDOT":0}]
